{
  "norad_id": 65683,
  "name": "STARLINK-34886",
  "history": [
    {
      "epoch": "2026-03-28T21:03:53.087328Z",
      "apogee_km": 475.8550579255134,
      "perigee_km": 474.5542936754473,
      "latitude_deg": -2.4489230602282626e-05,
      "longitude_deg": 114.11945023758392,
      "height_km": 476.1366895555673,
      "semi_major_axis_km": 6853.3416758004805,
      "eccentricity": 9.49e-05,
      "inclination_deg": 53.1579,
      "raan_deg": 256.3825,
      "arg_perigee_deg": 92.9724,
      "mean_anomaly_deg": 267.1385,
      "mean_motion_rev_day": 15.30203481
    },
    {
      "epoch": "2026-03-30T04:24:57.143808Z",
      "apogee_km": 475.6025671829184,
      "perigee_km": 474.75686789997326,
      "latitude_deg": 9.467697540759257e-07,
      "longitude_deg": -3.5033771637653413,
      "height_km": 475.9947797631812,
      "semi_major_axis_km": 6853.3167175414455,
      "eccentricity": 6.17e-05,
      "inclination_deg": 53.1586,
      "raan_deg": 250.3141,
      "arg_perigee_deg": 78.5764,
      "mean_anomaly_deg": 281.5306,
      "mean_motion_rev_day": 15.3021184
    },
    {
      "epoch": "2026-03-30T04:24:57.144672Z",
      "apogee_km": 475.6025671829184,
      "perigee_km": 474.75686789997326,
      "latitude_deg": 9.467700802186178e-07,
      "longitude_deg": -3.503380773622108,
      "height_km": 475.99477976317917,
      "semi_major_axis_km": 6853.3167175414455,
      "eccentricity": 6.17e-05,
      "inclination_deg": 53.1586,
      "raan_deg": 250.3141,
      "arg_perigee_deg": 78.5764,
      "mean_anomaly_deg": 281.5306,
      "mean_motion_rev_day": 15.3021184
    },
    {
      "epoch": "2026-03-30T10:41:10.311936Z",
      "apogee_km": 476.1590929795475,
      "perigee_km": 474.2693499137449,
      "latitude_deg": 2.5702832877250988e-05,
      "longitude_deg": -99.02983869223712,
      "height_km": 476.11029205531844,
      "semi_major_axis_km": 6853.3512214466455,
      "eccentricity": 0.00013787,
      "inclination_deg": 53.158,
      "raan_deg": 249.1,
      "arg_perigee_deg": 89.9008,
      "mean_anomaly_deg": 270.2151,
      "mean_motion_rev_day": 15.30200284
    },
    {
      "epoch": "2026-03-30T21:39:32.518944Z",
      "apogee_km": 475.6787344260192,
      "perigee_km": 474.68925194102303,
      "latitude_deg": 3.308145448323922e-05,
      "longitude_deg": 93.80279980154036,
      "height_km": 476.01321964867395,
      "semi_major_axis_km": 6853.320993183521,
      "eccentricity": 7.219e-05,
      "inclination_deg": 53.1582,
      "raan_deg": 246.9758,
      "arg_perigee_deg": 81.9367,
      "mean_anomaly_deg": 278.1716,
      "mean_motion_rev_day": 15.30210408
    },
    {
      "epoch": "2026-03-31T19:36:17.193024Z",
      "apogee_km": 475.62398813450454,
      "perigee_km": 474.74950402450486,
      "latitude_deg": 5.3304430003486956e-05,
      "longitude_deg": 119.46829449232266,
      "height_km": 475.74476248517794,
      "semi_major_axis_km": 6853.323746079504,
      "eccentricity": 6.38e-05,
      "inclination_deg": 53.162,
      "raan_deg": 242.7287,
      "arg_perigee_deg": 38.6618,
      "mean_anomaly_deg": 321.4429,
      "mean_motion_rev_day": 15.30209486
    },
    {
      "epoch": "2026-04-01T15:58:58.898208Z",
      "apogee_km": 475.5635460685471,
      "perigee_km": 474.8823220910999,
      "latitude_deg": -2.796802892983995e-06,
      "longitude_deg": 169.01127712717286,
      "height_km": 476.22494858223934,
      "semi_major_axis_km": 6853.359934079824,
      "eccentricity": 4.97e-05,
      "inclination_deg": 53.1599,
      "raan_deg": 238.7824,
      "arg_perigee_deg": 107.5848,
      "mean_anomaly_deg": 252.5207,
      "mean_motion_rev_day": 15.30197366
    },
    {
      "epoch": "2026-04-02T18:37:53.590944Z",
      "apogee_km": 477.6066177675102,
      "perigee_km": 472.688563679515,
      "latitude_deg": -5.3044619476075595e-05,
      "longitude_deg": 123.03273817876784,
      "height_km": 475.9643213340736,
      "semi_major_axis_km": 6853.284590723512,
      "eccentricity": 0.00035881,
      "inclination_deg": 53.1593,
      "raan_deg": 233.6262,
      "arg_perigee_deg": 88.1882,
      "mean_anomaly_deg": 271.9529,
      "mean_motion_rev_day": 15.302226
    },
    {
      "epoch": "2026-04-03T16:34:38.151840Z",
      "apogee_km": 476.2103937966922,
      "perigee_km": 474.35585831058324,
      "latitude_deg": -4.234430091688041e-05,
      "longitude_deg": 148.699397516435,
      "height_km": 476.0660129252141,
      "semi_major_axis_km": 6853.420126053637,
      "eccentricity": 0.0001353,
      "inclination_deg": 53.1602,
      "raan_deg": 229.3798,
      "arg_perigee_deg": 82.869,
      "mean_anomaly_deg": 277.2464,
      "mean_motion_rev_day": 15.30177207
    },
    {
      "epoch": "2026-04-04T16:05:26.163744Z",
      "apogee_km": 476.02756653296365,
      "perigee_km": 474.3827644132507,
      "latitude_deg": -2.0548851229018002e-05,
      "longitude_deg": 150.48640507107982,
      "height_km": 475.96604257989026,
      "semi_major_axis_km": 6853.342165473107,
      "eccentricity": 0.00012,
      "inclination_deg": 53.159,
      "raan_deg": 224.8325,
      "arg_perigee_deg": 80.3954,
      "mean_anomaly_deg": 279.7182,
      "mean_motion_rev_day": 15.30203317
    },
    {
      "epoch": "2026-04-05T14:02:10.583808Z",
      "apogee_km": 477.5486377902489,
      "perigee_km": 472.74804847309315,
      "latitude_deg": 6.008597342944292e-05,
      "longitude_deg": 176.14960345502232,
      "height_km": 478.2775318877866,
      "semi_major_axis_km": 6853.285343131671,
      "eccentricity": 0.00035024,
      "inclination_deg": 53.1593,
      "raan_deg": 220.582,
      "arg_perigee_deg": 158.3691,
      "mean_anomaly_deg": 201.7459,
      "mean_motion_rev_day": 15.30222348
    },
    {
      "epoch": "2026-04-05T18:44:20.208480Z",
      "apogee_km": 476.6565942959869,
      "perigee_km": 473.63566709197767,
      "latitude_deg": 1.5616575263709637e-06,
      "longitude_deg": 104.50762476099202,
      "height_km": 477.2725848273221,
      "semi_major_axis_km": 6853.2831306939825,
      "eccentricity": 0.0002204,
      "inclination_deg": 53.1591,
      "raan_deg": 219.6733,
      "arg_perigee_deg": 144.4227,
      "mean_anomaly_deg": 215.6921,
      "mean_motion_rev_day": 15.30223089
    },
    {
      "epoch": "2026-04-06T01:00:33.429312Z",
      "apogee_km": 476.28939631099,
      "perigee_km": 474.10948705561987,
      "latitude_deg": 9.309963761352427e-06,
      "longitude_deg": 8.973729559906413,
      "height_km": 475.935063390562,
      "semi_major_axis_km": 6853.336441683305,
      "eccentricity": 0.00015904,
      "inclination_deg": 53.1584,
      "raan_deg": 218.452,
      "arg_perigee_deg": 81.4597,
      "mean_anomaly_deg": 278.6584,
      "mean_motion_rev_day": 15.30205234
    },
    {
      "epoch": "2026-04-07T11:29:43.636128Z",
      "apogee_km": 476.0592273040211,
      "perigee_km": 474.35781574484827,
      "latitude_deg": 1.428461002658422e-05,
      "longitude_deg": -156.4016955316435,
      "height_km": 476.1419760475169,
      "semi_major_axis_km": 6853.345521524435,
      "eccentricity": 0.00012413,
      "inclination_deg": 53.158,
      "raan_deg": 211.7854,
      "arg_perigee_deg": 92.3954,
      "mean_anomaly_deg": 267.7189,
      "mean_motion_rev_day": 15.30202193
    },
    {
      "epoch": "2026-04-08T14:08:37.760352Z",
      "apogee_km": 475.95799726391124,
      "perigee_km": 474.47273873871745,
      "latitude_deg": -3.422601551039007e-05,
      "longitude_deg": 157.62103779647163,
      "height_km": 475.845562269485,
      "semi_major_axis_km": 6853.352368001314,
      "eccentricity": 0.00010836,
      "inclination_deg": 53.1577,
      "raan_deg": 206.6281,
      "arg_perigee_deg": 68.8462,
      "mean_anomaly_deg": 291.2654,
      "mean_motion_rev_day": 15.301999
    },
    {
      "epoch": "2026-04-09T13:39:25.572672Z",
      "apogee_km": 475.90615840770533,
      "perigee_km": 474.5683797503807,
      "latitude_deg": -2.699917065294657e-05,
      "longitude_deg": 159.40646611265996,
      "height_km": 476.09627005083235,
      "semi_major_axis_km": 6853.374269079043,
      "eccentricity": 9.76e-05,
      "inclination_deg": 53.1585,
      "raan_deg": 202.0784,
      "arg_perigee_deg": 86.6305,
      "mean_anomaly_deg": 273.4807,
      "mean_motion_rev_day": 15.30192565
    },
    {
      "epoch": "2026-04-10T13:10:13.268352Z",
      "apogee_km": 475.75710449398684,
      "perigee_km": 474.7071683422864,
      "latitude_deg": 1.100067083413278e-06,
      "longitude_deg": 161.19019767107733,
      "height_km": 475.9063210904523,
      "semi_major_axis_km": 6853.369136418136,
      "eccentricity": 7.66e-05,
      "inclination_deg": 53.1584,
      "raan_deg": 197.5265,
      "arg_perigee_deg": 64.6831,
      "mean_anomaly_deg": 295.4249,
      "mean_motion_rev_day": 15.30194284
    },
    {
      "epoch": "2026-04-11T17:23:11.279040Z",
      "apogee_km": 476.02893553329704,
      "perigee_km": 474.41017271521287,
      "latitude_deg": 4.583650266849832e-05,
      "longitude_deg": 91.32742296882822,
      "height_km": 475.93311843631625,
      "semi_major_axis_km": 6853.356554124255,
      "eccentricity": 0.0001181,
      "inclination_deg": 53.1596,
      "raan_deg": 192.0642,
      "arg_perigee_deg": 76.8142,
      "mean_anomaly_deg": 283.2991,
      "mean_motion_rev_day": 15.30198498
    },
    {
      "epoch": "2026-04-13T05:26:24.882432Z",
      "apogee_km": 476.09654804124784,
      "perigee_km": 474.3093340514215,
      "latitude_deg": 3.1458598399269436e-05,
      "longitude_deg": -97.93634542699301,
      "height_km": 476.02783009543,
      "semi_major_axis_km": 6853.339941046334,
      "eccentricity": 0.00013039,
      "inclination_deg": 53.1593,
      "raan_deg": 185.0878,
      "arg_perigee_deg": 85.3098,
      "mean_anomaly_deg": 274.8052,
      "mean_motion_rev_day": 15.30204062
    }
  ]
}